[{"OBJECT_NAME":"STARLINK-31942","OBJECT_ID":"2024-100Q","EPOCH":"2026-03-08T05:14:21.132096","MEAN_MOTION":15.27567948,"ECCENTRICITY":9.929e-5,"INCLINATION":42.9999,"RA_OF_ASC_NODE":133.5544,"ARG_OF_PERICENTER":280.9043,"MEAN_ANOMALY":79.1696,"EPHEMERIS_TYPE":0,"CLASSIFICATION_TYPE":"U","NORAD_CAT_ID":59899,"ELEMENT_SET_NO":999,"REV_AT_EPOCH":10092,"BSTAR":-2.3153262e-5,"MEAN_MOTION_DOT":-8.99e-6,"MEAN_MOTION_DDOT":0},{"OBJECT_NAME":"H-2A R\/B","OBJECT_ID":"2006-002B","EPOCH":"2026-03-09T22:32:18.942432","MEAN_MOTION":15.16426804,"ECCENTRICITY":0.00518947,"INCLINATION":98.2413,"RA_OF_ASC_NODE":215.9838,"ARG_OF_PERICENTER":240.1322,"MEAN_ANOMALY":119.4746,"EPHEMERIS_TYPE":0,"CLASSIFICATION_TYPE":"U","NORAD_CAT_ID":28932,"ELEMENT_SET_NO":999,"REV_AT_EPOCH":9447,"BSTAR":0.00057792596,"MEAN_MOTION_DOT":0.00011556,"MEAN_MOTION_DDOT":0}]
